{
  "type": "FeatureCollection",
  "features": [
    {
      "type": "Feature",
      "properties": {
        "norad_id": 37781,
        "name": "HAIYANG-2A",
        "group": "resource",
        "lat": -49.41871873354204,
        "lon": -10.94044938917261,
        "alt_km": 975.8345359486602,
        "timestamp": "2025-12-02T21:34:00.929964+00:00",
        "meta_object_name": "HAIYANG-2A",
        "meta_object_id": "2011-043A",
        "meta_epoch": "2025-12-02T11:21:41.181120",
        "meta_mean_motion": 13.78834071,
        "meta_eccentricity": 0.0001643,
        "meta_inclination": 99.3377,
        "meta_ra_of_asc_node": 337.5661,
        "meta_arg_of_pericenter": 98.0698,
        "meta_mean_anomaly": 262.064,
        "meta_ephemeris_type": 0,
        "meta_classification_type": "U",
        "meta_norad_cat_id": 37781,
        "meta_element_set_no": 999,
        "meta_rev_at_epoch": 71957,
        "meta_bstar": 5.6843e-05,
        "meta_mean_motion_dot": 1.4e-07,
        "meta_mean_motion_ddot": 0,
        "tle_line1": "1 37781U 11043A   25336.47339330  .00000014  00000+0  56843-4 0  9990",
        "tle_line2": "2 37781  99.3377 337.5661 0001643  98.0698 262.0640 13.78834071719572"
      },
      "geometry": {
        "type": "Point",
        "coordinates": [
          -10.94044938917261,
          -49.41871873354204
        ]
      }
    },
    {
      "type": "Feature",
      "properties": {
        "norad_id": 37791,
        "name": "RASAT",
        "group": "resource",
        "lat": 23.13116331859985,
        "lon": -110.22480488134944,
        "alt_km": 660.0923660253202,
        "timestamp": "2025-12-02T21:34:00.929974+00:00",
        "meta_object_name": "RASAT",
        "meta_object_id": "2011-044D",
        "meta_epoch": "2025-12-02T12:56:08.056032",
        "meta_mean_motion": 14.67885758,
        "meta_eccentricity": 0.0021967,
        "meta_inclination": 98.0656,
        "meta_ra_of_asc_node": 65.9481,
        "meta_arg_of_pericenter": 95.7258,
        "meta_mean_anomaly": 321.233,
        "meta_ephemeris_type": 0,
        "meta_classification_type": "U",
        "meta_norad_cat_id": 37791,
        "meta_element_set_no": 999,
        "meta_rev_at_epoch": 76433,
        "meta_bstar": 0.00016707,
        "meta_mean_motion_dot": 9.09e-06,
        "meta_mean_motion_ddot": 0,
        "tle_line1": "1 37791U 11044D   25336.53898213  .00000909  00000+0  16707-3 0  9996",
        "tle_line2": "2 37791  98.0656  65.9481 0021967  95.7258 321.2330 14.67885758764333"
      },
      "geometry": {
        "type": "Point",
        "coordinates": [
          -110.22480488134944,
          23.13116331859985
        ]
      }
    },
    {
      "type": "Feature",
      "properties": {
        "norad_id": 37841,
        "name": "SRMSAT",
        "group": "resource",
        "lat": -0.2529079554762871,
        "lon": 166.82315380219362,
        "alt_km": 859.6267994431846,
        "timestamp": "2025-12-02T21:34:00.929984+00:00",
        "meta_object_name": "SRMSAT",
        "meta_object_id": "2011-058D",
        "meta_epoch": "2025-12-01T21:57:27.777312",
        "meta_mean_motion": 14.11505404,
        "meta_eccentricity": 0.00117535,
        "meta_inclination": 19.9698,
        "meta_ra_of_asc_node": 173.4687,
        "meta_arg_of_pericenter": 193.5378,
        "meta_mean_anomaly": 196.2106,
        "meta_ephemeris_type": 0,
        "meta_classification_type": "U",
        "meta_norad_cat_id": 37841,
        "meta_element_set_no": 999,
        "meta_rev_at_epoch": 72991,
        "meta_bstar": 0.00010220784,
        "meta_mean_motion_dot": 4.53e-06,
        "meta_mean_motion_ddot": 0,
        "tle_line1": "1 37841U 11058D   25335.91490483  .00000453  00000+0  10221-3 0  9994",
        "tle_line2": "2 37841  19.9698 173.4687 0011753 193.5378 196.2106 14.11505404729914"
      },
      "geometry": {
        "type": "Point",
        "coordinates": [
          166.82315380219362,
          -0.2529079554762871
        ]
      }
    },
    {
      "type": "Feature",
      "properties": {
        "norad_id": 38012,
        "name": "PLEIADES 1A",
        "group": "resource",
        "lat": -75.58545311416893,
        "lon": 83.8658237041614,
        "alt_km": 706.134733095957,
        "timestamp": "2025-12-02T21:34:00.929994+00:00",
        "meta_object_name": "PLEIADES 1A",
        "meta_object_id": "2011-076F",
        "meta_epoch": "2025-12-02T12:34:36.414912",
        "meta_mean_motion": 14.58545141,
        "meta_eccentricity": 0.0001427,
        "meta_inclination": 98.1835,
        "meta_ra_of_asc_node": 49.4498,
        "meta_arg_of_pericenter": 82.0257,
        "meta_mean_anomaly": 34.1969,
        "meta_ephemeris_type": 0,
        "meta_classification_type": "U",
        "meta_norad_cat_id": 38012,
        "meta_element_set_no": 999,
        "meta_rev_at_epoch": 74332,
        "meta_bstar": 0.00013886,
        "meta_mean_motion_dot": 6e-06,
        "meta_mean_motion_ddot": 0,
        "tle_line1": "1 38012U 11076F   25336.52403258  .00000600  00000+0  13886-3 0  9991",
        "tle_line2": "2 38012  98.1835  49.4498 0001427  82.0257  34.1969 14.58545141743325"
      },
      "geometry": {
        "type": "Point",
        "coordinates": [
          83.8658237041614,
          -75.58545311416893
        ]
      }
    },
    {
      "type": "Feature",
      "properties": {
        "norad_id": 38038,
        "name": "ZIYUAN 1-02C (ZY 1-02C)",
        "group": "resource",
        "lat": -16.559077360429843,
        "lon": -139.4354398623547,
        "alt_km": 765.8359816773282,
        "timestamp": "2025-12-02T21:34:00.930005+00:00",
        "meta_object_name": "ZIYUAN 1-02C (ZY 1-02C)",
        "meta_object_id": "2011-079A",
        "meta_epoch": "2025-12-02T12:48:29.323008",
        "meta_mean_motion": 14.37993418,
        "meta_eccentricity": 0.0006736,
        "meta_inclination": 98.4347,
        "meta_ra_of_asc_node": 42.735,
        "meta_arg_of_pericenter": 166.7727,
        "meta_mean_anomaly": 301.6469,
        "meta_ephemeris_type": 0,
        "meta_classification_type": "U",
        "meta_norad_cat_id": 38038,
        "meta_element_set_no": 999,
        "meta_rev_at_epoch": 73094,
        "meta_bstar": 0.00025114,
        "meta_mean_motion_dot": 7.16e-06,
        "meta_mean_motion_ddot": 0,
        "tle_line1": "1 38038U 11079A   25336.53367272  .00000716  00000+0  25114-3 0  9993",
        "tle_line2": "2 38038  98.4347  42.7350 0006736 166.7727 301.6469 14.37993418730949"
      },
      "geometry": {
        "type": "Point",
        "coordinates": [
          -139.4354398623547,
          -16.559077360429843
        ]
      }
    },
    {
      "type": "Feature",
      "properties": {
        "norad_id": 38046,
        "name": "ZIYUAN 3-1 (ZY 3-1)",
        "group": "resource",
        "lat": 82.32985508529895,
        "lon": -26.26963474872902,
        "alt_km": 360.07658070484104,
        "timestamp": "2025-12-02T21:34:00.930015+00:00",
        "meta_object_name": "ZIYUAN 3-1 (ZY 3-1)",
        "meta_object_id": "2012-001A",
        "meta_epoch": "2025-12-02T11:59:53.165760",
        "meta_mean_motion": 15.66622638,
        "meta_eccentricity": 0.0002221,
        "meta_inclination": 97.1784,
        "meta_ra_of_asc_node": 42.6922,
        "meta_arg_of_pericenter": 34.769,
        "meta_mean_anomaly": 325.3716,
        "meta_ephemeris_type": 0,
        "meta_classification_type": "U",
        "meta_norad_cat_id": 38046,
        "meta_element_set_no": 999,
        "meta_rev_at_epoch": 77336,
        "meta_bstar": 0.00070219,
        "meta_mean_motion_dot": 0.00073852,
        "meta_mean_motion_ddot": 0,
        "tle_line1": "1 38046U 12001A   25336.49992090  .00073852  00000+0  70219-3 0  9992",
        "tle_line2": "2 38046  97.1784  42.6922 0002221  34.7690 325.3716 15.66622638773368"
      },
      "geometry": {
        "type": "Point",
        "coordinates": [
          -26.26963474872902,
          82.32985508529895
        ]
      }
    },
    {
      "type": "Feature",
      "properties": {
        "norad_id": 38338,
        "name": "ARIRANG-3 (KOMPSAT-3)",
        "group": "resource",
        "lat": 66.41586203095818,
        "lon": -88.1969203937956,
        "alt_km": 678.9686327596592,
        "timestamp": "2025-12-02T21:34:00.930026+00:00",
        "meta_object_name": "ARIRANG-3 (KOMPSAT-3)",
        "meta_object_id": "2012-025B",
        "meta_epoch": "2025-12-02T11:24:01.760832",
        "meta_mean_motion": 14.61689956,
        "meta_eccentricity": 0.0006085,
        "meta_inclination": 98.3307,
        "meta_ra_of_asc_node": 290.9881,
        "meta_arg_of_pericenter": 10.9691,
        "meta_mean_anomaly": 349.1641,
        "meta_ephemeris_type": 0,
        "meta_classification_type": "U",
        "meta_norad_cat_id": 38338,
        "meta_element_set_no": 999,
        "meta_rev_at_epoch": 72260,
        "meta_bstar": 0.00018098,
        "meta_mean_motion_dot": 8.53e-06,
        "meta_mean_motion_ddot": 0,
        "tle_line1": "1 38338U 12025B   25336.47502038  .00000853  00000+0  18098-3 0  9997",
        "tle_line2": "2 38338  98.3307 290.9881 0006085  10.9691 349.1641 14.61689956722609"
      },
      "geometry": {
        "type": "Point",
        "coordinates": [
          -88.1969203937956,
          66.41586203095818
        ]
      }
    }
  ]
}